NORAD_CAT_ID,OBJECT_NAME,OBJECT_TYPE,EPOCH,MEAN_MOTION,ECCENTRICITY,INCLINATION,RA_OF_ASC_NODE,ARG_OF_PERICENTER,MEAN_ANOMALY,BSTAR,MEAN_MOTION_DOT,MEAN_MOTION_DDOT,TLE_LINE0,TLE_LINE1,TLE_LINE2,SEMIMAJOR_AXIS,PERIOD,APOGEE,PERIGEE,DECAYED
53787.0,STARLINK-4743,PAYLOAD,2024-06-17 20:20:23,15.08837558,0.0001044,53.218,221.4364,102.8783,257.2326,0.00015072,2.112e-05,0.0,0 STARLINK-4743,1 53787U 22111Q   24169.84749189  .00002112  00000-0  15072-3 0  9993,2 53787  53.2180 221.4364 0001044 102.8783 257.2326 15.08837558 98612,6917.888,95.438,540.475,539.031,0.0
53787.0,STARLINK-4743,PAYLOAD,2024-06-18 10:38:51,15.08839796,0.0001286,53.218,218.7599,104.1573,255.9562,6.9862e-07,-2.77e-06,0.0,0 STARLINK-4743,1 53787U 22111Q   24170.44365501 -.00000277  00000-0  69862-6 0  9993,2 53787  53.2180 218.7599 0001286 104.1573 255.9562 15.08839796 97893,6917.881,95.438,540.636,538.856,0.0
53787.0,STARLINK-4743,PAYLOAD,2024-06-18 20:11:10,15.08847338,0.0001053,53.2178,216.9748,90.8535,269.2578,2.52e-05,1.13e-06,0.0,0 STARLINK-4743,1 53787U 22111Q   24170.84108871  .00000113  00000-0  25200-4 0  9996,2 53787  53.2178 216.9748 0001053  90.8535 269.2578 15.08847338 97950,6917.858,95.437,540.451,538.995,0.0
53787.0,STARLINK-4743,PAYLOAD,2024-06-19 12:05:02,15.08836037,0.000106,53.2169,213.9995,83.6878,276.4234,-4.2755e-05,-9.68e-06,0.0,0 STARLINK-4743,1 53787U 22111Q   24171.50349748 -.00000968  00000-0 -42755-4 0  9994,2 53787  53.2169 213.9995 0001060  83.6878 276.4234 15.08836037 98054,6917.893,95.438,540.491,539.024,0.0
53787.0,STARLINK-4743,PAYLOAD,2024-06-20 10:20:25,15.08841951,9.3e-05,53.2164,209.8365,85.438,274.6718,4.5481e-05,4.36e-06,0.0,0 STARLINK-4743,1 53787U 22111Q   24172.43085005  .00000436  00000-0  45481-4 0  9997,2 53787  53.2164 209.8365 0000930  85.4380 274.6718 15.08841951 99001,6917.874,95.437,540.383,539.096,0.0
53787.0,STARLINK-4743,PAYLOAD,2024-06-20 19:52:44,15.08845573,9.38e-05,53.2161,208.0531,82.8144,277.2955,2.0104e-05,3.2e-07,0.0,0 STARLINK-4743,1 53787U 22111Q   24172.82828787  .00000032  00000-0  20104-4 0  9999,2 53787  53.2161 208.0531 0000938  82.8144 277.2955 15.08845573 98253,6917.863,95.437,540.377,539.079,0.0
53787.0,STARLINK-4743,PAYLOAD,2024-06-21 08:35:49,15.08837897,9.35e-05,53.2163,205.6741,84.8627,275.2472,3.1755e-05,2.18e-06,0.0,0 STARLINK-4743,1 53787U 22111Q   24173.35821257  .00000218  00000-0  31755-4 0  9993,2 53787  53.2163 205.6741 0000935  84.8627 275.2472 15.08837897 98337,6917.887,95.438,540.399,539.105,0.0
53787.0,STARLINK-4743,PAYLOAD,2024-06-22 06:51:13,15.08842559,9.52e-05,53.2166,201.5109,86.4117,273.6984,1.4126e-05,-6.3e-07,0.0,0 STARLINK-4743,1 53787U 22111Q   24174.28556976 -.00000063  00000-0  14126-4 0  9991,2 53787  53.2166 201.5109 0000952  86.4117 273.6984 15.08842559 99280,6917.873,95.437,540.396,539.079,0.0
53787.0,STARLINK-4743,PAYLOAD,2024-06-23 05:06:37,15.08835522,9.53e-05,53.2157,197.3462,92.0322,268.0779,8.7862e-07,-2.74e-06,0.0,0 STARLINK-4743,1 53787U 22111Q   24175.21293390 -.00000274  00000-0  87862-6 0  9996,2 53787  53.2157 197.3462 0000953  92.0322 268.0779 15.08835522 98614,6917.894,95.438,540.418,539.1,0.0
53787.0,STARLINK-4743,PAYLOAD,2024-06-23 08:17:23,15.08834719,9.11e-05,53.2159,196.7518,91.501,268.6086,-1.5841e-05,-5.4e-06,0.0,0 STARLINK-4743,1 53787U 22111Q   24175.34541526 -.00000540  00000-0 -15841-4 0  9990,2 53787  53.2159 196.7518 0000911  91.5010 268.6086 15.08834719 99449,6917.897,95.438,540.392,539.131,0.0
53787.0,STARLINK-4743,PAYLOAD,2024-06-24 08:08:10,15.08838735,9.31e-05,53.2157,192.29,77.7543,282.3554,3.7861e-05,3.15e-06,0.0,0 STARLINK-4743,1 53787U 22111Q   24176.33901260  .00000315  00000-0  37861-4 0  9999,2 53787  53.2157 192.2900 0000931  77.7543 282.3554 15.08838735 98783,6917.884,95.438,540.393,539.105,0.0
53787.0,STARLINK-4743,PAYLOAD,2024-06-25 06:23:34,15.08834173,9.36e-05,53.2158,188.1289,88.7584,271.3516,4.5718e-05,4.4e-06,0.0,0 STARLINK-4743,1 53787U 22111Q   24177.26637655  .00000440  00000-0  45718-4 0  9995,2 53787  53.2158 188.1289 0000936  88.7584 271.3516 15.08834173 99734,6917.898,95.438,540.411,539.116,0.0
53787.0,STARLINK-4743,PAYLOAD,2024-06-26 07:49:44,15.08841061,9.33e-05,53.2152,183.3703,87.8027,272.3072,3.9177e-05,3.36e-06,0.0,0 STARLINK-4743,1 53787U 22111Q   24178.32621437  .00000336  00000-0  39177-4 0  9990,2 53787  53.2152 183.3703 0000933  87.8027 272.3072 15.08841061 99085,6917.877,95.437,540.388,539.097,0.0
53787.0,STARLINK-4743,PAYLOAD,2024-06-27 04:29:46,15.08836324,9.3e-05,53.2148,179.504,81.5522,278.5576,2.658e-05,1.35e-06,0.0,0 STARLINK-4743,1 53787U 22111Q   24179.18733908  .00000135  00000-0  26580-4 0  9993,2 53787  53.2148 179.5040 0000930  81.5522 278.5576 15.08836324 99217,6917.892,95.438,540.4,539.113,0.0
53787.0,STARLINK-4743,PAYLOAD,2024-06-27 17:12:51,15.08838154,9.17e-05,53.215,177.1247,96.0054,264.1042,3.2706e-05,2.33e-06,0.0,0 STARLINK-4743,1 53787U 22111Q   24179.71725816  .00000233  00000-0  32706-4 0  9997,2 53787  53.2150 177.1247 0000917  96.0054 264.1042 15.08838154100102,6917.886,95.438,540.385,539.117,0.0
53787.0,STARLINK-4743,PAYLOAD,2024-06-28 05:55:55,15.08843293,8.81e-05,53.2147,174.7457,93.0032,267.1061,5.0527e-05,5.17e-06,0.0,0 STARLINK-4743,1 53787U 22111Q   24180.24717430  .00000517  00000-0  50527-4 0  9996,2 53787  53.2147 174.7457 0000881  93.0032 267.1061 15.08843293 99377,6917.87,95.437,540.345,539.126,0.0
53787.0,STARLINK-4743,PAYLOAD,2024-06-29 08:57:28,15.08844842,8.99e-05,53.2153,169.6912,88.4992,271.6103,8.9166e-05,1.132e-05,0.0,0 STARLINK-4743,1 53787U 22111Q   24181.37325032  .00001132  00000-0  89166-4 0  9999,2 53787  53.2153 169.6912 0000899  88.4992 271.6103 15.08844842 99542,6917.866,95.437,540.353,539.109,0.0
53787.0,STARLINK-4743,PAYLOAD,2024-06-29 16:54:24,15.08849076,8.86e-05,53.2155,168.2047,114.092,246.0165,5.4178e-05,5.75e-06,0.0,0 STARLINK-4743,1 53787U 22111Q   24181.70444661  .00000575  00000-0  54178-4 0  9991,2 53787  53.2155 168.2047 0000886 114.0920 246.0165 15.08849076100407,6917.853,95.437,540.331,539.105,0.0
53787.0,STARLINK-4743,PAYLOAD,2024-06-30 05:37:30,15.08834614,0.0001001,53.2158,165.8253,98.5502,261.5603,-4.1254e-05,-9.44e-06,0.0,0 STARLINK-4743,1 53787U 22111Q   24182.23438031 -.00000944  00000-0 -41254-4 0  9997,2 53787  53.2158 165.8253 0001001  98.5502 261.5603 15.08834614 99671,6917.897,95.438,540.454,539.069,0.0
53787.0,STARLINK-4743,PAYLOAD,2024-07-01 05:28:17,15.08840643,9.85e-05,53.2158,161.3664,95.8715,264.239,-2.1223e-06,-3.22e-06,0.0,0 STARLINK-4743,1 53787U 22111Q   24183.22797687 -.00000322  00000-0 -21223-5 0  9997,2 53787  53.2158 161.3664 0000985  95.8715 264.2390 15.08840643 99823,6917.878,95.438,540.425,539.062,0.0
53787.0,STARLINK-4743,PAYLOAD,2024-07-01 22:57:32,15.08829691,0.0001204,53.2185,158.098,95.9687,264.1442,0.00011581,1.555e-05,0.0,0 STARLINK-4743,1 53787U 22111Q   24183.95662115  .00001555  00000-0  11581-3 0  9995,2 53787  53.2185 158.0980 0001204  95.9687 264.1442 15.08829691100742,6917.912,95.438,540.61,538.944,0.0
53787.0,STARLINK-4743,PAYLOAD,2024-07-02 05:19:04,15.08831826,0.0001091,53.2165,156.9067,97.5218,262.5898,8.0636e-05,9.95e-06,0.0,0 STARLINK-4743,1 53787U 22111Q   24184.22158229  .00000995  00000-0  80636-4 0  9997,2 53787  53.2165 156.9067 0001091  97.5218 262.5898 15.08831826 99977,6917.905,95.438,540.525,539.016,0.0
53787.0,STARLINK-4743,PAYLOAD,2024-07-02 08:29:50,15.08835244,0.0001107,53.2165,156.3116,96.916,263.1958,7.7874e-05,9.52e-06,0.0,0 STARLINK-4743,1 53787U 22111Q   24184.35406073  .00000952  00000-0  77874-4 0  9997,2 53787  53.2165 156.3116 0001107  96.9160 263.1958 15.08835244100800,6917.895,95.438,540.526,538.994,0.0
53787.0,STARLINK-4743,PAYLOAD,2024-07-02 21:12:56,15.08838881,0.0001357,53.2175,153.9338,100.182,259.9325,4.3342e-05,4.02e-06,0.0,0 STARLINK-4743,1 53787U 22111Q   24184.88398159  .00000402  00000-0  43342-4 0  9993,2 53787  53.2175 153.9338 0001357 100.1820 259.9325 15.08838881100887,6917.884,95.438,540.688,538.81,0.0
53787.0,STARLINK-4743,PAYLOAD,2024-07-03 14:42:10,15.08845189,0.0001108,53.2168,150.6615,87.9454,272.1665,6.8936e-05,8.1e-06,0.0,0 STARLINK-4743,1 53787U 22111Q   24185.61261743  .00000810  00000-0  68936-4 0  9992,2 53787  53.2168 150.6615 0001108  87.9454 272.1665 15.08845189100186,6917.865,95.437,540.496,538.963,0.0
53787.0,STARLINK-4743,PAYLOAD,2024-07-04 05:00:39,15.08829457,0.000108,53.2153,147.9839,81.1724,278.939,2.3903e-06,-2.5e-06,0.0,0 STARLINK-4743,1 53787U 22111Q   24186.20879262 -.00000250  00000-0  23903-5 0  9994,2 53787  53.2153 147.9839 0001080  81.1724 278.9390 15.08829457100271,6917.913,95.438,540.525,539.03,0.0
53787.0,STARLINK-4743,PAYLOAD,2024-07-04 14:32:57,15.08840951,0.0001216,53.2166,146.2004,83.7518,276.3613,4.6738e-05,4.56e-06,0.0,0 STARLINK-4743,1 53787U 22111Q   24186.60622542  .00000456  00000-0  46738-4 0  9992,2 53787  53.2166 146.2004 0001216  83.7518 276.3613 15.08840951101140,6917.877,95.437,540.584,538.901,0.0
53787.0,STARLINK-4743,PAYLOAD,2024-07-05 06:26:48,15.08846788,0.0001152,53.2161,143.2264,90.5372,269.5752,0.00017473,2.495e-05,0.0,0 STARLINK-4743,1 53787U 22111Q   24187.26862037  .00002495  00000-0  17473-3 0  9998,2 53787  53.2161 143.2264 0001152  90.5372 269.5752 15.08846788101246,6917.86,95.437,540.522,538.928,0.0
53787.0,STARLINK-4743,PAYLOAD,2024-07-06 03:06:50,15.08836112,0.0001263,53.2168,139.3599,95.6992,264.4145,0.0001664,2.361e-05,0.0,0 STARLINK-4743,1 53787U 22111Q   24188.12974887  .00002361  00000-0  16640-3 0  9998,2 53787  53.2168 139.3599 0001263  95.6992 264.4145 15.08836112100561,6917.892,95.438,540.631,538.884,0.0
53787.0,STARLINK-4743,PAYLOAD,2024-07-06 14:14:31,15.08842441,0.000119,53.2162,137.2782,96.0192,264.0935,8.9078e-05,1.13e-05,0.0,0 STARLINK-4743,1 53787U 22111Q   24188.59342532  .00001130  00000-0  89078-4 0  9994,2 53787  53.2162 137.2782 0001190  96.0192 264.0935 15.08842441101445,6917.873,95.437,540.561,538.915,0.0
